<?xml version="1.0" encoding="UTF-8"?>
<kml xmlns="http://www.opengis.net/kml/2.2">
<Document>
  <Placemark>
    <name>TE30 Bedok South</name>
    <Point>
      <coordinates>103.94923038001318,1.3166456856882618</coordinates>
    </Point>
  </Placemark>
  <Placemark>
    <name>TE31 Sungei Bedok</name>
    <Point>
      <coordinates>103.95720762079861,1.3203959599740995</coordinates>
    </Point>
  </Placemark>
  <Placemark>
    <name>DT36 Xilin</name>
    <Point>
      <coordinates>103.96486806284406,1.328734540243039</coordinates>
    </Point>
  </Placemark>
  <Placemark>
    <name>DT37 Sungei Bedok</name>
    <Point>
      <coordinates>103.95720762079861,1.3203959599740995</coordinates>
    </Point>
  </Placemark>
  <Placemark>
    <name>CC30 Keppel</name>
    <Point>
      <coordinates>103.83029594184094,1.2701719539198713</coordinates>
    </Point>
  </Placemark>
  <Placemark>
    <name>CC31 Cantonment</name>
    <Point>
      <coordinates>103.8367402503118,1.2730817331802042</coordinates>
    </Point>
  </Placemark>
  <Placemark>
    <name>CC32 Prince Edward Road</name>
    <Point>
      <coordinates>103.84726563653462,1.2732407280310234</coordinates>
    </Point>
  </Placemark>
  <Placemark>
    <name>JS1 Choa Chu Kang</name>
    <Point>
      <coordinates>103.74434408893133,1.3851254680366532</coordinates>
    </Point>
  </Placemark>
  <Placemark>
    <name>JS2 Choa Chu Kang West</name>
    <Point>
      <coordinates>103.74001342904067,1.3792210090842536</coordinates>
    </Point>
  </Placemark>
  <Placemark>
    <name>JS3 Tengah</name>
    <Point>
      <coordinates>103.73001067862933,1.3663534647032467</coordinates>
    </Point>
  </Placemark>
  <Placemark>
    <name>JS4 Hong Kah</name>
    <Point>
      <coordinates>103.72610120695401,1.3580131149925936</coordinates>
    </Point>
  </Placemark>
  <Placemark>
    <name>JS5 Corporation</name>
    <Point>
      <coordinates>103.71381299547156,1.3529695343362098</coordinates>
    </Point>
  </Placemark>
  <Placemark>
    <name>JS6 Jurong West</name>
    <Point>
      <coordinates>103.70825683283655,1.3491851409286144</coordinates>
    </Point>
  </Placemark>
  <Placemark>
    <name>JS7 Bahar Junction</name>
    <Point>
      <coordinates>103.7030341020502,1.3461917323028454</coordinates>
    </Point>
  </Placemark>
  <Placemark>
    <name>JS8 Boon Lay</name>
    <Point>
      <coordinates>103.70531990031637,1.3383562390412558</coordinates>
    </Point>
  </Placemark>
  <Placemark>
    <name>JW1 Gek Poh</name>
    <Point>
      <coordinates>103.6981160327606,1.3483461900761775</coordinates>
    </Point>
  </Placemark>
  <Placemark>
    <name>JW2 Tawas</name>
    <Point>
      <coordinates>103.69188973659975,1.350658112886788</coordinates>
    </Point>
  </Placemark>
  <Placemark>
    <name>TE22A Founders' Memorial</name>
    <Point>
      <coordinates>103.86893419081727,1.2909735602127401</coordinates>
    </Point>
  </Placemark>
  <Placemark>
    <name>JE1 Tengah Plantation</name>
    <Point>
      <coordinates>103.73345298368655,1.3573321352640935</coordinates>
    </Point>
  </Placemark>
  <Placemark>
    <name>JE2 Tengah Park</name>
    <Point>
      <coordinates>103.73678393001224,1.352326157460195</coordinates>
    </Point>
  </Placemark>
  <Placemark>
    <name>JE3 Bukit Batok West</name>
    <Point>
      <coordinates>103.7395019676103,1.3456739510149516</coordinates>
    </Point>
  </Placemark>
  <Placemark>
    <name>JE4 Toh Guan</name>
    <Point>
      <coordinates>103.742494812135,1.3399090568905165</coordinates>
    </Point>
  </Placemark>
  <Placemark>
    <name>JE5 Jurong East</name>
    <Point>
      <coordinates>103.74210748182318,1.333050284679782</coordinates>
    </Point>
  </Placemark>
  <Placemark>
    <name>JE6 Jurong Town Hall</name>
    <Point>
      <coordinates>103.74521205263636,1.3263789775445054</coordinates>
    </Point>
  </Placemark>
  <Placemark>
    <name>JE7 Pandan Reservoir</name>
    <Point>
      <coordinates>103.7448007651914,1.320458223153171</coordinates>
    </Point>
  </Placemark>
  <Placemark>
    <name>JS9 Enterprise</name>
    <Point>
      <coordinates>103.70857975778225,1.3327316696239189</coordinates>
    </Point>
  </Placemark>
  <Placemark>
    <name>JS10 Tukang</name>
    <Point>
      <coordinates>103.70924521471403,1.3254102896356106</coordinates>
    </Point>
  </Placemark>
  <Placemark>
    <name>JS11 Jurong Hill</name>
    <Point>
      <coordinates>103.71013468207298,1.3186246498744871</coordinates>
    </Point>
  </Placemark>
  <Placemark>
    <name>JS12 Jurong Pier</name>
    <Point>
      <coordinates>103.71039877678588,1.3131311689118546</coordinates>
    </Point>
  </Placemark>
  <Placemark>
    <name>JW3 Nanyang Gateway</name>
    <Point>
      <coordinates>103.68660681628533,1.353688748523998</coordinates>
    </Point>
  </Placemark>
  <Placemark>
    <name>JW4 Nanyang Crescent</name>
    <Point>
      <coordinates>103.68080361982648,1.348406058361224</coordinates>
    </Point>
  </Placemark>
  <Placemark>
    <name>JW5 Peng Kang Hill</name>
    <Point>
      <coordinates>103.67855554554436,1.3432230839217252</coordinates>
    </Point>
  </Placemark>
  <Placemark>
    <name>CR2 Aviation Park</name>
    <Point>
      <coordinates>104.00351389332846,1.3702113670676506</coordinates>
    </Point>
  </Placemark>
  <Placemark>
    <name>CR3 Loyang</name>
    <Point>
      <coordinates>103.97222524704989,1.3714039693793765</coordinates>
    </Point>
  </Placemark>
  <Placemark>
    <name>CR4 Pasir Ris East</name>
    <Point>
      <coordinates>103.96054831249381,1.367050629369177</coordinates>
    </Point>
  </Placemark>
  <Placemark>
    <name>CR5 Pasir Ris</name>
    <Point>
      <coordinates>103.94933430267868,1.3720098191020362</coordinates>
    </Point>
  </Placemark>
  <Placemark>
    <name>CR6 Tampines North</name>
    <Point>
      <coordinates>103.9381069524582,1.369449526486207</coordinates>
    </Point>
  </Placemark>
  <Placemark>
    <name>CR7 Defu</name>
    <Point>
      <coordinates>103.89899601290712,1.362340217706898</coordinates>
    </Point>
  </Placemark>
  <Placemark>
    <name>CR8 Hougang</name>
    <Point>
      <coordinates>103.8917486395222,1.37121513084043</coordinates>
    </Point>
  </Placemark>
  <Placemark>
    <name>CR9 Serangoon North</name>
    <Point>
      <coordinates>103.87392796807833,1.3705661627364352</coordinates>
    </Point>
  </Placemark>
  <Placemark>
    <name>CR10 Tavistock</name>
    <Point>
      <coordinates>103.86327814413596,1.3701972380126186</coordinates>
    </Point>
  </Placemark>
  <Placemark>
    <name>CR11 Ang Mo Kio</name>
    <Point>
      <coordinates>103.85025142310502,1.3696725253555933</coordinates>
    </Point>
  </Placemark>
  <Placemark>
    <name>CR12 Teck Ghee</name>
    <Point>
      <coordinates>103.84360463817544,1.3655366015365205</coordinates>
    </Point>
  </Placemark>
  <Placemark>
    <name>CR13 Bright Hill</name>
    <Point>
      <coordinates>103.83447249683356,1.3632817842745766</coordinates>
    </Point>
  </Placemark>
  <Placemark>
    <name>CR14 Turf City</name>
    <Point>
      <coordinates>103.79442676751877,1.3409139926581004</coordinates>
    </Point>
  </Placemark>
  <Placemark>
    <name>CR15 King Albert Park</name>
    <Point>
      <coordinates>103.78308418937229,1.3347417534979744</coordinates>
    </Point>
  </Placemark>
  <Placemark>
    <name>CR16 Maju</name>
    <Point>
      <coordinates>103.7769245837171,1.3281487684997983</coordinates>
    </Point>
  </Placemark>
  <Placemark>
    <name>CR17 Clementi</name>
    <Point>
      <coordinates>103.76560394593672,1.3159314667201611</coordinates>
    </Point>
  </Placemark>
  <Placemark>
    <name>CR18 West Coast</name>
    <Point>
      <coordinates>103.7582663586318,1.3105599161973904</coordinates>
    </Point>
  </Placemark>
  <Placemark>
    <name>CR19 Jurong Lake District</name>
    <Point>
      <coordinates>103.73981250483112,1.3271604433801358</coordinates>
    </Point>
  </Placemark>
  <Placemark>
    <name>CP1 Pasir Ris</name>
    <Point>
      <coordinates>103.94933430267868,1.3720098191020362</coordinates>
    </Point>
  </Placemark>
  <Placemark>
    <name>CP2 Elias</name>
    <Point>
      <coordinates>103.93897005128616,1.383463000240358</coordinates>
    </Point>
  </Placemark>
  <Placemark>
    <name>CP3 Riviera</name>
    <Point>
      <coordinates>103.91593242521265,1.3953581720237742</coordinates>
    </Point>
  </Placemark>
  <Placemark>
    <name>CP4 Punggol</name>
    <Point>
      <coordinates>103.90240395660469,1.405165442795008</coordinates>
    </Point>
  </Placemark>
  <Placemark>
    <name>NS3A Brickland</name>
    <Point>
      <coordinates>103.749676524253,1.3684011947216186</coordinates>
    </Point>
  </Placemark>
  <Placemark>
    <name>CR1 Changi Terminal 5</name>
    <Point>
      <coordinates>103.99196794225878,1.3243986092035498</coordinates>
    </Point>
  </Placemark>
  <Placemark>
    <name>TE32 Changi Terminal 5</name>
    <Point>
      <coordinates>103.99196794225878,1.3243986092035498</coordinates>
    </Point>
  </Placemark>
  <Placemark>
    <name>CC18 Bukit Brown</name>
    <Point>
      <coordinates>103.83071216429913,1.3337318981200899</coordinates>
    </Point>
  </Placemark>
  <Placemark>
    <name>DE1 Yew Tee Village</name>
    <Point>
      <coordinates>103.75344590447695,1.4006380047262175</coordinates>
    </Point>
  </Placemark>
  <Placemark>
    <name>DE2 Sungei Kadut</name>
    <Point>
      <coordinates>103.748924012435,1.4133910875005729</coordinates>
    </Point>
  </Placemark>
  <Placemark>
    <name>NS6 Sungei Kadut</name>
    <Point>
      <coordinates>103.748924012435,1.4133910875005729</coordinates>
    </Point>
  </Placemark>
  <Placemark>
    <name>TE4A Tagore</name>
    <Point>
      <coordinates>103.8266128,1.3903418</coordinates>
    </Point>
  </Placemark>
  <Placemark>
    <name>TE10 Mount Pleasant</name>
    <Point>
      <coordinates>103.83506011898334,1.3285471133429991</coordinates>
    </Point>
  </Placemark>
  <Placemark>
    <name>TE21 Marina South</name>
    <Point>
      <coordinates>103.86311257442675,1.2742039630199826</coordinates>
    </Point>
  </Placemark>
</Document>
</kml>
