<?xml version="1.0" encoding="UTF-8"?>
<kml xmlns="http://www.opengis.net/kml/2.2">
<Document>
  <Placemark>
    <name>BP1 Choa Chu Kang</name>
    <Point>
      <coordinates>103.74434408893133,1.3851254680366532</coordinates>
    </Point>
  </Placemark>
  <Placemark>
    <name>BP2 South View</name>
    <Point>
      <coordinates>103.74529179982976,1.380298286261839</coordinates>
    </Point>
  </Placemark>
  <Placemark>
    <name>BP3 Keat Hong</name>
    <Point>
      <coordinates>103.74905150388537,1.3786121668142508</coordinates>
    </Point>
  </Placemark>
  <Placemark>
    <name>BP4 Teck Whye</name>
    <Point>
      <coordinates>103.75369963153,1.3766592934552422</coordinates>
    </Point>
  </Placemark>
  <Placemark>
    <name>BP5 Phoenix</name>
    <Point>
      <coordinates>103.75803362307677,1.3786249492919498</coordinates>
    </Point>
  </Placemark>
  <Placemark>
    <name>BP6 Bukit Panjang</name>
    <Point>
      <coordinates>103.76235265975984,1.378485469375234</coordinates>
    </Point>
  </Placemark>
  <Placemark>
    <name>BP7 Petir</name>
    <Point>
      <coordinates>103.76666727587175,1.3777549868542922</coordinates>
    </Point>
  </Placemark>
  <Placemark>
    <name>BP8 Pending</name>
    <Point>
      <coordinates>103.7712797503296,1.3761265381792571</coordinates>
    </Point>
  </Placemark>
  <Placemark>
    <name>BP9 Bangkit</name>
    <Point>
      <coordinates>103.77266121907934,1.3800154942226468</coordinates>
    </Point>
  </Placemark>
  <Placemark>
    <name>BP10 Fajar</name>
    <Point>
      <coordinates>103.77083795595894,1.3845326784759364</coordinates>
    </Point>
  </Placemark>
  <Placemark>
    <name>BP11 Segar</name>
    <Point>
      <coordinates>103.76965965382928,1.387756408019682</coordinates>
    </Point>
  </Placemark>
  <Placemark>
    <name>BP12 Jelapang</name>
    <Point>
      <coordinates>103.7645005796885,1.3866966768351228</coordinates>
    </Point>
  </Placemark>
  <Placemark>
    <name>BP13 Senja</name>
    <Point>
      <coordinates>103.76236875414202,1.3826992425630433</coordinates>
    </Point>
  </Placemark>
  <Placemark>
    <name>CC1 Dhoby Ghaut</name>
    <Point>
      <coordinates>103.8458117190266,1.2991489615370466</coordinates>
    </Point>
  </Placemark>
  <Placemark>
    <name>CC2 Bras Basah</name>
    <Point>
      <coordinates>103.85065880858372,1.2968300501137628</coordinates>
    </Point>
  </Placemark>
  <Placemark>
    <name>CC3 Esplanade</name>
    <Point>
      <coordinates>103.85561426886412,1.2932723026397464</coordinates>
    </Point>
  </Placemark>
  <Placemark>
    <name>CC4 Promenade</name>
    <Point>
      <coordinates>103.86094756856582,1.293143901003921</coordinates>
    </Point>
  </Placemark>
  <Placemark>
    <name>CC5 Nicoll Highway</name>
    <Point>
      <coordinates>103.86363313784665,1.299802829852342</coordinates>
    </Point>
  </Placemark>
  <Placemark>
    <name>CC6 Stadium</name>
    <Point>
      <coordinates>103.87534796400688,1.3028540998999254</coordinates>
    </Point>
  </Placemark>
  <Placemark>
    <name>CC7 Mountbatten</name>
    <Point>
      <coordinates>103.8825470150979,1.306193786928982</coordinates>
    </Point>
  </Placemark>
  <Placemark>
    <name>CC8 Dakota</name>
    <Point>
      <coordinates>103.88866829951886,1.3083751546374272</coordinates>
    </Point>
  </Placemark>
  <Placemark>
    <name>CC9 Paya Lebar</name>
    <Point>
      <coordinates>103.89267068880001,1.3177432141186658</coordinates>
    </Point>
  </Placemark>
  <Placemark>
    <name>CC10 MacPherson</name>
    <Point>
      <coordinates>103.8898166121914,1.3262293288956457</coordinates>
    </Point>
  </Placemark>
  <Placemark>
    <name>CC11 Tai Seng</name>
    <Point>
      <coordinates>103.88816447575532,1.3354531033466337</coordinates>
    </Point>
  </Placemark>
  <Placemark>
    <name>CC12 Bartley</name>
    <Point>
      <coordinates>103.87972518719033,1.3428468439645</coordinates>
    </Point>
  </Placemark>
  <Placemark>
    <name>CC13 Serangoon</name>
    <Point>
      <coordinates>103.87304885351502,1.3500741477714449</coordinates>
    </Point>
  </Placemark>
  <Placemark>
    <name>CC14 Lorong Chuan</name>
    <Point>
      <coordinates>103.86414412658448,1.3516197558599472</coordinates>
    </Point>
  </Placemark>
  <Placemark>
    <name>CC15 Bishan</name>
    <Point>
      <coordinates>103.84868243429734,1.3510484822751936</coordinates>
    </Point>
  </Placemark>
  <Placemark>
    <name>CC16 Marymount</name>
    <Point>
      <coordinates>103.8394101808655,1.3487780553384583</coordinates>
    </Point>
  </Placemark>
  <Placemark>
    <name>CC17 Caldecott</name>
    <Point>
      <coordinates>103.83986538570805,1.3375387677791497</coordinates>
    </Point>
  </Placemark>
  <Placemark>
    <name>CC19 Botanic Gardens</name>
    <Point>
      <coordinates>103.81561860443068,1.3222556032290131</coordinates>
    </Point>
  </Placemark>
  <Placemark>
    <name>CC20 Farrer Road</name>
    <Point>
      <coordinates>103.80748912456241,1.3174545708323449</coordinates>
    </Point>
  </Placemark>
  <Placemark>
    <name>CC21 Holland Village</name>
    <Point>
      <coordinates>103.79623333601177,1.3119456175150919</coordinates>
    </Point>
  </Placemark>
  <Placemark>
    <name>CC22 Buona Vista</name>
    <Point>
      <coordinates>103.79028747130236,1.3068710122280809</coordinates>
    </Point>
  </Placemark>
  <Placemark>
    <name>CC23 one-north</name>
    <Point>
      <coordinates>103.78739137925261,1.2996514573113378</coordinates>
    </Point>
  </Placemark>
  <Placemark>
    <name>CC24 Kent Ridge</name>
    <Point>
      <coordinates>103.78449793835178,1.2934009381438487</coordinates>
    </Point>
  </Placemark>
  <Placemark>
    <name>CC25 Haw Par Villa</name>
    <Point>
      <coordinates>103.78182132863023,1.2825029022300132</coordinates>
    </Point>
  </Placemark>
  <Placemark>
    <name>CC26 Pasir Panjang</name>
    <Point>
      <coordinates>103.79134196573705,1.2762296702371938</coordinates>
    </Point>
  </Placemark>
  <Placemark>
    <name>CC27 Labrador Park</name>
    <Point>
      <coordinates>103.80292770476869,1.2723234942957917</coordinates>
    </Point>
  </Placemark>
  <Placemark>
    <name>CC28 Telok Blangah</name>
    <Point>
      <coordinates>103.809739740652,1.2705817890107285</coordinates>
    </Point>
  </Placemark>
  <Placemark>
    <name>CC29 HarbourFront</name>
    <Point>
      <coordinates>103.82150740808491,1.265310691626473</coordinates>
    </Point>
  </Placemark>
  <Placemark>
    <name>CE1 Bayfront</name>
    <Point>
      <coordinates>103.85907514177777,1.2818722431382803</coordinates>
    </Point>
  </Placemark>
  <Placemark>
    <name>CE2 Marina Bay</name>
    <Point>
      <coordinates>103.85498166544687,1.2758094294533002</coordinates>
    </Point>
  </Placemark>
  <Placemark>
    <name>CG1 Expo</name>
    <Point>
      <coordinates>103.96196341596709,1.3348980488177347</coordinates>
    </Point>
  </Placemark>
  <Placemark>
    <name>CG2 Changi Airport</name>
    <Point>
      <coordinates>103.98834814909442,1.3573189576183131</coordinates>
    </Point>
  </Placemark>
  <Placemark>
    <name>DT1 Bukit Panjang</name>
    <Point>
      <coordinates>103.76235265975984,1.378485469375234</coordinates>
    </Point>
  </Placemark>
  <Placemark>
    <name>DT2 Cashew</name>
    <Point>
      <coordinates>103.76469934064848,1.3693663697456693</coordinates>
    </Point>
  </Placemark>
  <Placemark>
    <name>DT3 Hillview</name>
    <Point>
      <coordinates>103.76742281566246,1.362336809808497</coordinates>
    </Point>
  </Placemark>
  <Placemark>
    <name>DT4 Hume</name>
    <Point>
      <coordinates>103.76910392897064,1.3545108355374271</coordinates>
    </Point>
  </Placemark>
  <Placemark>
    <name>DT5 Beauty World</name>
    <Point>
      <coordinates>103.77579158431996,1.3412269612555616</coordinates>
    </Point>
  </Placemark>
  <Placemark>
    <name>DT6 King Albert Park</name>
    <Point>
      <coordinates>103.78308418937229,1.3347417534979744</coordinates>
    </Point>
  </Placemark>
  <Placemark>
    <name>DT7 Sixth Avenue</name>
    <Point>
      <coordinates>103.79726347741008,1.330801546139581</coordinates>
    </Point>
  </Placemark>
  <Placemark>
    <name>DT8 Tan Kah Kee</name>
    <Point>
      <coordinates>103.80733103974738,1.3258724508086044</coordinates>
    </Point>
  </Placemark>
  <Placemark>
    <name>DT9 Botanic Gardens</name>
    <Point>
      <coordinates>103.81561860443068,1.3222556032290131</coordinates>
    </Point>
  </Placemark>
  <Placemark>
    <name>DT10 Stevens</name>
    <Point>
      <coordinates>103.82583341635527,1.3199006799927198</coordinates>
    </Point>
  </Placemark>
  <Placemark>
    <name>DT11 Newton</name>
    <Point>
      <coordinates>103.83803477211077,1.3129117966563681</coordinates>
    </Point>
  </Placemark>
  <Placemark>
    <name>DT12 Little India</name>
    <Point>
      <coordinates>103.84927785171979,1.3071641923108004</coordinates>
    </Point>
  </Placemark>
  <Placemark>
    <name>DT13 Rochor</name>
    <Point>
      <coordinates>103.8524399625922,1.3039277778520966</coordinates>
    </Point>
  </Placemark>
  <Placemark>
    <name>DT14 Bugis</name>
    <Point>
      <coordinates>103.85626865113218,1.2999975124848677</coordinates>
    </Point>
  </Placemark>
  <Placemark>
    <name>DT15 Promenade</name>
    <Point>
      <coordinates>103.86094756856582,1.293143901003921</coordinates>
    </Point>
  </Placemark>
  <Placemark>
    <name>DT16 Bayfront</name>
    <Point>
      <coordinates>103.85907514177777,1.2818722431382803</coordinates>
    </Point>
  </Placemark>
  <Placemark>
    <name>DT17 Downtown</name>
    <Point>
      <coordinates>103.85284216745879,1.279441953085253</coordinates>
    </Point>
  </Placemark>
  <Placemark>
    <name>DT18 Telok Ayer</name>
    <Point>
      <coordinates>103.84832342237205,1.2822804876308553</coordinates>
    </Point>
  </Placemark>
  <Placemark>
    <name>DT19 Chinatown</name>
    <Point>
      <coordinates>103.84400359690841,1.2844979891931358</coordinates>
    </Point>
  </Placemark>
  <Placemark>
    <name>DT20 Fort Canning</name>
    <Point>
      <coordinates>103.84428910026826,1.292403234699504</coordinates>
    </Point>
  </Placemark>
  <Placemark>
    <name>DT21 Bencoolen</name>
    <Point>
      <coordinates>103.85026001961103,1.2987383503712773</coordinates>
    </Point>
  </Placemark>
  <Placemark>
    <name>DT22 Jalan Besar</name>
    <Point>
      <coordinates>103.85542874970528,1.30537670263359</coordinates>
    </Point>
  </Placemark>
  <Placemark>
    <name>DT23 Bendemeer</name>
    <Point>
      <coordinates>103.86296930045476,1.3136595922847918</coordinates>
    </Point>
  </Placemark>
  <Placemark>
    <name>DT24 Geylang Bahru</name>
    <Point>
      <coordinates>103.87190108504024,1.3215103924352716</coordinates>
    </Point>
  </Placemark>
  <Placemark>
    <name>DT25 Mattar</name>
    <Point>
      <coordinates>103.88325305986126,1.3268656821831755</coordinates>
    </Point>
  </Placemark>
  <Placemark>
    <name>DT26 MacPherson</name>
    <Point>
      <coordinates>103.8898166121914,1.3262293288956457</coordinates>
    </Point>
  </Placemark>
  <Placemark>
    <name>DT27 Ubi</name>
    <Point>
      <coordinates>103.89924886684018,1.329955264485481</coordinates>
    </Point>
  </Placemark>
  <Placemark>
    <name>DT28 Kaki Bukit</name>
    <Point>
      <coordinates>103.9084551578921,1.334962978665666</coordinates>
    </Point>
  </Placemark>
  <Placemark>
    <name>DT29 Bedok North</name>
    <Point>
      <coordinates>103.91787672264688,1.3347556340643625</coordinates>
    </Point>
  </Placemark>
  <Placemark>
    <name>DT30 Bedok Reservoir</name>
    <Point>
      <coordinates>103.93228754719657,1.3365987355758024</coordinates>
    </Point>
  </Placemark>
  <Placemark>
    <name>DT31 Tampines West</name>
    <Point>
      <coordinates>103.93843404854924,1.345514318345991</coordinates>
    </Point>
  </Placemark>
  <Placemark>
    <name>DT32 Tampines</name>
    <Point>
      <coordinates>103.94408991606302,1.3542205476839944</coordinates>
    </Point>
  </Placemark>
  <Placemark>
    <name>DT33 Tampines East</name>
    <Point>
      <coordinates>103.95485813749899,1.3562123851881451</coordinates>
    </Point>
  </Placemark>
  <Placemark>
    <name>DT34 Upper Changi</name>
    <Point>
      <coordinates>103.9614732441236,1.3417403773362115</coordinates>
    </Point>
  </Placemark>
  <Placemark>
    <name>DT35 Expo</name>
    <Point>
      <coordinates>103.96196341596709,1.3348980488177347</coordinates>
    </Point>
  </Placemark>
  <Placemark>
    <name>EW1 Pasir Ris</name>
    <Point>
      <coordinates>103.94933430267868,1.3720098191020362</coordinates>
    </Point>
  </Placemark>
  <Placemark>
    <name>EW2 Tampines</name>
    <Point>
      <coordinates>103.94408991606302,1.3542205476839944</coordinates>
    </Point>
  </Placemark>
  <Placemark>
    <name>EW3 Simei</name>
    <Point>
      <coordinates>103.9533771182992,1.3431974397954487</coordinates>
    </Point>
  </Placemark>
  <Placemark>
    <name>EW4 Tanah Merah</name>
    <Point>
      <coordinates>103.94654794367561,1.3272540817777472</coordinates>
    </Point>
  </Placemark>
  <Placemark>
    <name>EW5 Bedok</name>
    <Point>
      <coordinates>103.93017251986417,1.3240113189246734</coordinates>
    </Point>
  </Placemark>
  <Placemark>
    <name>EW6 Kembangan</name>
    <Point>
      <coordinates>103.91294742959236,1.3210380145636937</coordinates>
    </Point>
  </Placemark>
  <Placemark>
    <name>EW7 Eunos</name>
    <Point>
      <coordinates>103.90325558730702,1.3197611173392314</coordinates>
    </Point>
  </Placemark>
  <Placemark>
    <name>EW8 Paya Lebar</name>
    <Point>
      <coordinates>103.89267068880001,1.3177432141186658</coordinates>
    </Point>
  </Placemark>
  <Placemark>
    <name>EW9 Aljunied</name>
    <Point>
      <coordinates>103.88290452869101,1.316433494695341</coordinates>
    </Point>
  </Placemark>
  <Placemark>
    <name>EW10 Kallang</name>
    <Point>
      <coordinates>103.87131236090362,1.3114123456496802</coordinates>
    </Point>
  </Placemark>
  <Placemark>
    <name>EW11 Lavender</name>
    <Point>
      <coordinates>103.86283780154915,1.3073717305725638</coordinates>
    </Point>
  </Placemark>
  <Placemark>
    <name>EW12 Bugis</name>
    <Point>
      <coordinates>103.85626865113218,1.2999975124848677</coordinates>
    </Point>
  </Placemark>
  <Placemark>
    <name>EW13 City Hall</name>
    <Point>
      <coordinates>103.85260777099556,1.292935458131331</coordinates>
    </Point>
  </Placemark>
  <Placemark>
    <name>EW14 Raffles Place</name>
    <Point>
      <coordinates>103.85145931539898,1.284067270989306</coordinates>
    </Point>
  </Placemark>
  <Placemark>
    <name>EW15 Tanjong Pagar</name>
    <Point>
      <coordinates>103.84601318730437,1.2766311508227064</coordinates>
    </Point>
  </Placemark>
  <Placemark>
    <name>EW16 Outram Park</name>
    <Point>
      <coordinates>103.83925001411495,1.2808389346699285</coordinates>
    </Point>
  </Placemark>
  <Placemark>
    <name>EW17 Tiong Bahru</name>
    <Point>
      <coordinates>103.82703434044352,1.286219740332733</coordinates>
    </Point>
  </Placemark>
  <Placemark>
    <name>EW18 Redhill</name>
    <Point>
      <coordinates>103.81677319412825,1.2896302709624783</coordinates>
    </Point>
  </Placemark>
  <Placemark>
    <name>EW19 Queenstown</name>
    <Point>
      <coordinates>103.80604523672386,1.294611331801812</coordinates>
    </Point>
  </Placemark>
  <Placemark>
    <name>EW20 Commonwealth</name>
    <Point>
      <coordinates>103.79829071929134,1.3024476459449514</coordinates>
    </Point>
  </Placemark>
  <Placemark>
    <name>EW21 Buona Vista</name>
    <Point>
      <coordinates>103.79028747130236,1.3068710122280809</coordinates>
    </Point>
  </Placemark>
  <Placemark>
    <name>EW22 Dover</name>
    <Point>
      <coordinates>103.77864915499143,1.3113946900971238</coordinates>
    </Point>
  </Placemark>
  <Placemark>
    <name>EW23 Clementi</name>
    <Point>
      <coordinates>103.76560394593672,1.3159314667201611</coordinates>
    </Point>
  </Placemark>
  <Placemark>
    <name>EW24 Jurong East</name>
    <Point>
      <coordinates>103.74210748182318,1.333050284679782</coordinates>
    </Point>
  </Placemark>
  <Placemark>
    <name>EW25 Chinese Garden</name>
    <Point>
      <coordinates>103.73281439405886,1.3421449762957498</coordinates>
    </Point>
  </Placemark>
  <Placemark>
    <name>EW26 Lakeside</name>
    <Point>
      <coordinates>103.72096682017924,1.3442638155664695</coordinates>
    </Point>
  </Placemark>
  <Placemark>
    <name>EW27 Boon Lay</name>
    <Point>
      <coordinates>103.70531990031637,1.3383562390412558</coordinates>
    </Point>
  </Placemark>
  <Placemark>
    <name>EW28 Pioneer</name>
    <Point>
      <coordinates>103.69741522528173,1.3375950972528237</coordinates>
    </Point>
  </Placemark>
  <Placemark>
    <name>EW29 Joo Koon</name>
    <Point>
      <coordinates>103.67828617916503,1.327744942268679</coordinates>
    </Point>
  </Placemark>
  <Placemark>
    <name>EW30 Gul Circle</name>
    <Point>
      <coordinates>103.66073679407967,1.3197032592130764</coordinates>
    </Point>
  </Placemark>
  <Placemark>
    <name>EW31 Tuas Crescent</name>
    <Point>
      <coordinates>103.64896525737075,1.3211383595667519</coordinates>
    </Point>
  </Placemark>
  <Placemark>
    <name>EW32 Tuas West Road</name>
    <Point>
      <coordinates>103.63957309721583,1.3300371270042406</coordinates>
    </Point>
  </Placemark>
  <Placemark>
    <name>EW33 Tuas Link</name>
    <Point>
      <coordinates>103.63675132373392,1.340270406495732</coordinates>
    </Point>
  </Placemark>
  <Placemark>
    <name>NE1 HarbourFront</name>
    <Point>
      <coordinates>103.82150740808491,1.265310691626473</coordinates>
    </Point>
  </Placemark>
  <Placemark>
    <name>NE3 Outram Park</name>
    <Point>
      <coordinates>103.83925001411495,1.2808389346699285</coordinates>
    </Point>
  </Placemark>
  <Placemark>
    <name>NE4 Chinatown</name>
    <Point>
      <coordinates>103.84400359690841,1.2844979891931358</coordinates>
    </Point>
  </Placemark>
  <Placemark>
    <name>NE5 Clarke Quay</name>
    <Point>
      <coordinates>103.84664481271456,1.2886057308902332</coordinates>
    </Point>
  </Placemark>
  <Placemark>
    <name>NE6 Dhoby Ghaut</name>
    <Point>
      <coordinates>103.8458117190266,1.2991489615370466</coordinates>
    </Point>
  </Placemark>
  <Placemark>
    <name>NE7 Little India</name>
    <Point>
      <coordinates>103.84927785171979,1.3071641923108004</coordinates>
    </Point>
  </Placemark>
  <Placemark>
    <name>NE8 Farrer Park</name>
    <Point>
      <coordinates>103.85427015841306,1.3124482283293788</coordinates>
    </Point>
  </Placemark>
  <Placemark>
    <name>NE9 Boon Keng</name>
    <Point>
      <coordinates>103.86168108544172,1.3194470900320243</coordinates>
    </Point>
  </Placemark>
  <Placemark>
    <name>NE10 Potong Pasir</name>
    <Point>
      <coordinates>103.86906995828527,1.3313873892306496</coordinates>
    </Point>
  </Placemark>
  <Placemark>
    <name>NE11 Woodleigh</name>
    <Point>
      <coordinates>103.87079168986061,1.3391607697389176</coordinates>
    </Point>
  </Placemark>
  <Placemark>
    <name>NE12 Serangoon</name>
    <Point>
      <coordinates>103.87304885351502,1.3500741477714449</coordinates>
    </Point>
  </Placemark>
  <Placemark>
    <name>NE13 Kovan</name>
    <Point>
      <coordinates>103.88509111597133,1.3601798707280965</coordinates>
    </Point>
  </Placemark>
  <Placemark>
    <name>NE14 Hougang</name>
    <Point>
      <coordinates>103.8917486395222,1.37121513084043</coordinates>
    </Point>
  </Placemark>
  <Placemark>
    <name>NE15 Buangkok</name>
    <Point>
      <coordinates>103.89309246881164,1.3827715837771788</coordinates>
    </Point>
  </Placemark>
  <Placemark>
    <name>NE16 Sengkang</name>
    <Point>
      <coordinates>103.8954261698915,1.3915510620007674</coordinates>
    </Point>
  </Placemark>
  <Placemark>
    <name>NE17 Punggol</name>
    <Point>
      <coordinates>103.90240395660469,1.405165442795008</coordinates>
    </Point>
  </Placemark>
  <Placemark>
    <name>NE18 Punggol Coast</name>
    <Point>
      <coordinates>103.91021424530948,1.4149388181616607</coordinates>
    </Point>
  </Placemark>
  <Placemark>
    <name>NS1 Jurong East</name>
    <Point>
      <coordinates>103.74210748182318,1.333050284679782</coordinates>
    </Point>
  </Placemark>
  <Placemark>
    <name>NS2 Bukit Batok</name>
    <Point>
      <coordinates>103.74954069134954,1.3489967490688684</coordinates>
    </Point>
  </Placemark>
  <Placemark>
    <name>NS3 Bukit Gombak</name>
    <Point>
      <coordinates>103.75191010899835,1.3586719216098169</coordinates>
    </Point>
  </Placemark>
  <Placemark>
    <name>NS4 Choa Chu Kang</name>
    <Point>
      <coordinates>103.74434408893133,1.3851254680366532</coordinates>
    </Point>
  </Placemark>
  <Placemark>
    <name>NS5 Yew Tee</name>
    <Point>
      <coordinates>103.74740209303708,1.3975496334690805</coordinates>
    </Point>
  </Placemark>
  <Placemark>
    <name>NS7 Kranji</name>
    <Point>
      <coordinates>103.76205895494209,1.4251892314695478</coordinates>
    </Point>
  </Placemark>
  <Placemark>
    <name>NS8 Marsiling</name>
    <Point>
      <coordinates>103.77404281322656,1.4325784529165027</coordinates>
    </Point>
  </Placemark>
  <Placemark>
    <name>NS9 Woodlands</name>
    <Point>
      <coordinates>103.78705527389394,1.436448687872568</coordinates>
    </Point>
  </Placemark>
  <Placemark>
    <name>NS10 Admiralty</name>
    <Point>
      <coordinates>103.80097510574198,1.4405887099902668</coordinates>
    </Point>
  </Placemark>
  <Placemark>
    <name>NS11 Sembawang</name>
    <Point>
      <coordinates>103.82018789692005,1.4490674618976647</coordinates>
    </Point>
  </Placemark>
  <Placemark>
    <name>NS12 Canberra</name>
    <Point>
      <coordinates>103.82953968335984,1.4432345901096362</coordinates>
    </Point>
  </Placemark>
  <Placemark>
    <name>NS13 Yishun</name>
    <Point>
      <coordinates>103.83497264860424,1.4295722438817275</coordinates>
    </Point>
  </Placemark>
  <Placemark>
    <name>NS14 Khatib</name>
    <Point>
      <coordinates>103.83303809149398,1.4175753810979856</coordinates>
    </Point>
  </Placemark>
  <Placemark>
    <name>NS15 Yio Chu Kang</name>
    <Point>
      <coordinates>103.84480693849162,1.3817534968318599</coordinates>
    </Point>
  </Placemark>
  <Placemark>
    <name>NS16 Ang Mo Kio</name>
    <Point>
      <coordinates>103.85025142310502,1.3696725253555933</coordinates>
    </Point>
  </Placemark>
  <Placemark>
    <name>NS17 Bishan</name>
    <Point>
      <coordinates>103.84868243429734,1.3510484822751936</coordinates>
    </Point>
  </Placemark>
  <Placemark>
    <name>NS18 Braddell</name>
    <Point>
      <coordinates>103.84679533583812,1.3403574630140758</coordinates>
    </Point>
  </Placemark>
  <Placemark>
    <name>NS19 Toa Payoh</name>
    <Point>
      <coordinates>103.8474452071861,1.332667992247838</coordinates>
    </Point>
  </Placemark>
  <Placemark>
    <name>NS20 Novena</name>
    <Point>
      <coordinates>103.8438181306018,1.3204300814932564</coordinates>
    </Point>
  </Placemark>
  <Placemark>
    <name>NS21 Newton</name>
    <Point>
      <coordinates>103.83803477211077,1.3129117966563681</coordinates>
    </Point>
  </Placemark>
  <Placemark>
    <name>NS22 Orchard</name>
    <Point>
      <coordinates>103.83187416773077,1.303444646304231</coordinates>
    </Point>
  </Placemark>
  <Placemark>
    <name>NS23 Somerset</name>
    <Point>
      <coordinates>103.83907516220226,1.3002600545835286</coordinates>
    </Point>
  </Placemark>
  <Placemark>
    <name>NS24 Dhoby Ghaut</name>
    <Point>
      <coordinates>103.8458117190266,1.2991489615370466</coordinates>
    </Point>
  </Placemark>
  <Placemark>
    <name>NS25 City Hall</name>
    <Point>
      <coordinates>103.85260777099556,1.292935458131331</coordinates>
    </Point>
  </Placemark>
  <Placemark>
    <name>NS26 Raffles Place</name>
    <Point>
      <coordinates>103.85145931539898,1.284067270989306</coordinates>
    </Point>
  </Placemark>
  <Placemark>
    <name>NS27 Marina Bay</name>
    <Point>
      <coordinates>103.85498166544687,1.2758094294533002</coordinates>
    </Point>
  </Placemark>
  <Placemark>
    <name>NS28 Marina South Pier</name>
    <Point>
      <coordinates>103.86291089300765,1.2713773812015394</coordinates>
    </Point>
  </Placemark>
  <Placemark>
    <name>PE1 Cove</name>
    <Point>
      <coordinates>103.90591744030328,1.3993617068685738</coordinates>
    </Point>
  </Placemark>
  <Placemark>
    <name>PE2 Meridian</name>
    <Point>
      <coordinates>103.90899093841303,1.3968523391605283</coordinates>
    </Point>
  </Placemark>
  <Placemark>
    <name>PE3 Coral Edge</name>
    <Point>
      <coordinates>103.91256353486817,1.3939263504344506</coordinates>
    </Point>
  </Placemark>
  <Placemark>
    <name>PE4 Riviera</name>
    <Point>
      <coordinates>103.91593242521265,1.3953581720237742</coordinates>
    </Point>
  </Placemark>
  <Placemark>
    <name>PE5 Kadaloor</name>
    <Point>
      <coordinates>103.91639497890144,1.399638509666885</coordinates>
    </Point>
  </Placemark>
  <Placemark>
    <name>PE6 Oasis</name>
    <Point>
      <coordinates>103.9126318514526,1.4023508798916595</coordinates>
    </Point>
  </Placemark>
  <Placemark>
    <name>PE7 Damai</name>
    <Point>
      <coordinates>103.90850357756092,1.4053160221202112</coordinates>
    </Point>
  </Placemark>
  <Placemark>
    <name>PTC Punggol</name>
    <Point>
      <coordinates>103.90240395660469,1.405165442795008</coordinates>
    </Point>
  </Placemark>
  <Placemark>
    <name>PW1 Sam Kee</name>
    <Point>
      <coordinates>103.90483155144202,1.4096126869238204</coordinates>
    </Point>
  </Placemark>
  <Placemark>
    <name>PW2 Teck Lee</name>
    <Point>
      <coordinates>103.90662621184427,1.4128738705379404</coordinates>
    </Point>
  </Placemark>
  <Placemark>
    <name>PW3 Punggol Point</name>
    <Point>
      <coordinates>103.90653551158488,1.4169108526509417</coordinates>
    </Point>
  </Placemark>
  <Placemark>
    <name>PW4 Samudera</name>
    <Point>
      <coordinates>103.90208724260933,1.4158186977409486</coordinates>
    </Point>
  </Placemark>
  <Placemark>
    <name>PW5 Nibong</name>
    <Point>
      <coordinates>103.90029894847919,1.4117555862084634</coordinates>
    </Point>
  </Placemark>
  <Placemark>
    <name>PW6 Sumang</name>
    <Point>
      <coordinates>103.89851028670412,1.408353296668723</coordinates>
    </Point>
  </Placemark>
  <Placemark>
    <name>PW7 Soo Teck</name>
    <Point>
      <coordinates>103.89723440885503,1.4052096476198659</coordinates>
    </Point>
  </Placemark>
  <Placemark>
    <name>SE1 Compassvale</name>
    <Point>
      <coordinates>103.90055527782525,1.3944787834510037</coordinates>
    </Point>
  </Placemark>
  <Placemark>
    <name>SE2 Rumbia</name>
    <Point>
      <coordinates>103.90589048292587,1.3915644449909599</coordinates>
    </Point>
  </Placemark>
  <Placemark>
    <name>SE3 Bakau</name>
    <Point>
      <coordinates>103.90552634690918,1.3881050159515416</coordinates>
    </Point>
  </Placemark>
  <Placemark>
    <name>SE4 Kangkar</name>
    <Point>
      <coordinates>103.90225755089236,1.3840307673031464</coordinates>
    </Point>
  </Placemark>
  <Placemark>
    <name>SE5 Ranggung</name>
    <Point>
      <coordinates>103.89749260343731,1.3839214795181578</coordinates>
    </Point>
  </Placemark>
  <Placemark>
    <name>STC Sengkang</name>
    <Point>
      <coordinates>103.8954261698915,1.3915510620007674</coordinates>
    </Point>
  </Placemark>
  <Placemark>
    <name>SW1 Cheng Lim</name>
    <Point>
      <coordinates>103.89390790780313,1.3962489160522749</coordinates>
    </Point>
  </Placemark>
  <Placemark>
    <name>SW2 Farmway</name>
    <Point>
      <coordinates>103.88938286120671,1.3971619025464026</coordinates>
    </Point>
  </Placemark>
  <Placemark>
    <name>SW3 Kupang</name>
    <Point>
      <coordinates>103.88137428305878,1.3981975780716305</coordinates>
    </Point>
  </Placemark>
  <Placemark>
    <name>SW4 Thanggam</name>
    <Point>
      <coordinates>103.87565537171609,1.397436993718034</coordinates>
    </Point>
  </Placemark>
  <Placemark>
    <name>SW5 Fernvale</name>
    <Point>
      <coordinates>103.87627965694506,1.391944192658048</coordinates>
    </Point>
  </Placemark>
  <Placemark>
    <name>SW6 Layar</name>
    <Point>
      <coordinates>103.88015787551086,1.3920928721400994</coordinates>
    </Point>
  </Placemark>
  <Placemark>
    <name>SW7 Tongkang</name>
    <Point>
      <coordinates>103.88593735859335,1.3893387809146653</coordinates>
    </Point>
  </Placemark>
  <Placemark>
    <name>SW8 Renjong</name>
    <Point>
      <coordinates>103.89042878850033,1.3867475129068825</coordinates>
    </Point>
  </Placemark>
  <Placemark>
    <name>TE1 Woodlands North</name>
    <Point>
      <coordinates>103.78596634244951,1.448392319968309</coordinates>
    </Point>
  </Placemark>
  <Placemark>
    <name>TE2 Woodlands</name>
    <Point>
      <coordinates>103.78705527389394,1.436448687872568</coordinates>
    </Point>
  </Placemark>
  <Placemark>
    <name>TE3 Woodlands South</name>
    <Point>
      <coordinates>103.79389794677142,1.4271151532156638</coordinates>
    </Point>
  </Placemark>
  <Placemark>
    <name>TE4 Springleaf</name>
    <Point>
      <coordinates>103.817921140757,1.398140978256675</coordinates>
    </Point>
  </Placemark>
  <Placemark>
    <name>TE5 Lentor</name>
    <Point>
      <coordinates>103.83633988787422,1.3849445080193759</coordinates>
    </Point>
  </Placemark>
  <Placemark>
    <name>TE6 Mayflower</name>
    <Point>
      <coordinates>103.83678152029555,1.3721081386146197</coordinates>
    </Point>
  </Placemark>
  <Placemark>
    <name>TE7 Bright Hill</name>
    <Point>
      <coordinates>103.83447249683356,1.3632817842745766</coordinates>
    </Point>
  </Placemark>
  <Placemark>
    <name>TE8 Upper Thomson</name>
    <Point>
      <coordinates>103.83285966545392,1.3544290003129547</coordinates>
    </Point>
  </Placemark>
  <Placemark>
    <name>TE9 Caldecott</name>
    <Point>
      <coordinates>103.83986538570805,1.3375387677791497</coordinates>
    </Point>
  </Placemark>
  <Placemark>
    <name>TE11 Stevens</name>
    <Point>
      <coordinates>103.82583341635527,1.3199006799927198</coordinates>
    </Point>
  </Placemark>
  <Placemark>
    <name>TE12 Napier</name>
    <Point>
      <coordinates>103.81908277343493,1.3066656512811499</coordinates>
    </Point>
  </Placemark>
  <Placemark>
    <name>TE13 Orchard Boulevard</name>
    <Point>
      <coordinates>103.8238476357721,1.3026661094847591</coordinates>
    </Point>
  </Placemark>
  <Placemark>
    <name>TE14 Orchard</name>
    <Point>
      <coordinates>103.83187416773077,1.303444646304231</coordinates>
    </Point>
  </Placemark>
  <Placemark>
    <name>TE15 Great World</name>
    <Point>
      <coordinates>103.83342645789939,1.2944678378851269</coordinates>
    </Point>
  </Placemark>
  <Placemark>
    <name>TE16 Havelock</name>
    <Point>
      <coordinates>103.83358978009632,1.2884419658075472</coordinates>
    </Point>
  </Placemark>
  <Placemark>
    <name>TE17 Outram Park</name>
    <Point>
      <coordinates>103.83925001411495,1.2808389346699285</coordinates>
    </Point>
  </Placemark>
  <Placemark>
    <name>TE18 Maxwell</name>
    <Point>
      <coordinates>103.84392436857507,1.2805964098154925</coordinates>
    </Point>
  </Placemark>
  <Placemark>
    <name>TE19 Shenton Way</name>
    <Point>
      <coordinates>103.85067510451763,1.2775905171046742</coordinates>
    </Point>
  </Placemark>
  <Placemark>
    <name>TE20 Marina Bay</name>
    <Point>
      <coordinates>103.85498166544687,1.2758094294533002</coordinates>
    </Point>
  </Placemark>
  <Placemark>
    <name>TE22 Gardens by the Bay</name>
    <Point>
      <coordinates>103.8679548831892,1.2792004698563675</coordinates>
    </Point>
  </Placemark>
  <Placemark>
    <name>TE23 Tanjong Rhu</name>
    <Point>
      <coordinates>103.87345501889277,1.2972452874437077</coordinates>
    </Point>
  </Placemark>
  <Placemark>
    <name>TE24 Katong Park</name>
    <Point>
      <coordinates>103.88623636531406,1.2978010415628742</coordinates>
    </Point>
  </Placemark>
  <Placemark>
    <name>TE25 Tanjong Katong</name>
    <Point>
      <coordinates>103.89744885045332,1.2993705596361003</coordinates>
    </Point>
  </Placemark>
  <Placemark>
    <name>TE26 Marine Parade</name>
    <Point>
      <coordinates>103.90550807454038,1.302865993021082</coordinates>
    </Point>
  </Placemark>
  <Placemark>
    <name>TE27 Marine Terrace</name>
    <Point>
      <coordinates>103.91526558461837,1.306767424002779</coordinates>
    </Point>
  </Placemark>
  <Placemark>
    <name>TE28 Siglap</name>
    <Point>
      <coordinates>103.9299170480523,1.3098814892597002</coordinates>
    </Point>
  </Placemark>
  <Placemark>
    <name>TE29 Bayshore</name>
    <Point>
      <coordinates>103.94184163653021,1.3129364944627582</coordinates>
    </Point>
  </Placemark>
</Document>
</kml>
